#aV2014  7  8  0  0  0.00000000     288 DD+AD WGS84 FIT  NGA
## 1800 172800.00000000   300.00000000 56846 0.0000000000000
+   32     1  2  3  4  5  6  7  8  9 10 11 12 13 14 15 16 17
+         18 19 20 21 22 23 24 25 26 27 28 29 30 31 32  0  0
+          0  0  0  0  0  0  0  0  0  0  0  0  0  0  0  0  0
+          0  0  0  0  0  0  0  0  0  0  0  0  0  0  0  0  0
+          0  0  0  0  0  0  0  0  0  0  0  0  0  0  0  0  0
++         2  2  2  2  2  2  2  2  2  2  2  2  2  2  2  2  2
++         2  2  2  2  2  2  2  2  2  2  2  2  2  2  2  0  0
++         0  0  0  0  0  0  0  0  0  0  0  0  0  0  0  0  0
++         0  0  0  0  0  0  0  0  0  0  0  0  0  0  0  0  0
++         0  0  0  0  0  0  0  0  0  0  0  0  0  0  0  0  0
%c cc cc ccc ccc cccc cccc cccc cccc ccccc ccccc ccccc ccccc
%c cc cc ccc ccc cccc cccc cccc cccc ccccc ccccc ccccc ccccc
%f  0.0000000  0.000000000  0.00000000000  0.000000000000000
%f  0.0000000  0.000000000  0.00000000000  0.000000000000000
%i    0    0    0    0      0      0      0      0         0
%i    0    0    0    0      0      0      0      0         0
/*      NGA, ST. LOUIS,MO.                                  
/*   EPHEMERIS COMPUTED FROM  1 DAYS OF DATA                
/*   EPOCHA SMOOTHER                                       
/* CCCCCCCCCCCCCCCCCCCCCCCCCCCCCCCCCCCCCCCCCCCCCCCCCCCCCCCCC
*  2014  7  8 11 40  0.00000000
P  1 -22139.852495 -11957.333571   8699.089111     17.172782                    
V  1  -6501.829969  -9271.731564 -29029.996530      0.008566                    
P  2  10458.266514  21262.241179  12774.983503    505.549110                    
V  2 -13405.243542  -8350.629847  24987.791908      0.021671                    
P  3 -12175.097232 -11320.056180 -21297.888045    387.824171                    
V  3  22793.745212 -12149.877821  -6609.945076      0.048231                    
P  4  -9542.984062  12284.431530  21192.553486      7.377989                    
V  4 -20967.725813 -18206.118144   1352.059284      0.000439                    
P  5   3598.630481  23555.075238 -11589.294941   -359.759959                    
V  5  -5829.577018  13853.584294  26591.352561      0.030373                    
P  6  -1054.081597  17644.733670  19816.359876      1.846704                    
V  6 -19531.607732 -15937.847452  13134.166028     -0.025044                    
P  7 -18830.584274   -210.445197 -18792.949123    366.350798                    
V  7 -16589.083901 -17192.601495  16408.324174      0.042834                    
P  8 -14264.875663   5017.603231 -21751.221222     14.628023                    
V  8 -18126.800177 -21111.520717   6369.830862      0.002403                    
P  9  -8828.608980  12199.342364 -22399.486485    136.442909                    
V  9 -20206.695444 -18082.124770  -2140.254235      0.589076                    
P 10  -8083.394290  24793.742859   3288.764831   -132.753647                    
V 10  -2666.522965  -5378.453268  31222.689890     -0.015451                    
P 11 -23467.587063 -12498.679061  -2539.286060   -503.588982                    
V 11   4349.459414  -3273.420912 -29786.368090     -0.030198                    
P 12  12267.570729   9404.647601  21555.524075    216.682902                    
V 12  -7158.987682  26488.904520  -7245.125855      0.025305                    
P 13 -26255.543385   3841.505607   2385.743147    -18.412773                    
V 13   2659.418821  -2743.614097  31818.051583     -0.038578                    
P 14  17679.600996 -14149.556570  13980.069658    156.397651                    
V 14  17392.516628  -2171.805630 -24740.565999     -0.035617                    
P 15  18643.431381   7067.211232 -17742.413076   -189.778515                    
V 15 -20388.686226   9426.639221 -17430.706750     -0.021997                    
P 16  -1863.412408 -23373.015651 -12174.033727   -208.777446                    
V 16   5915.053899 -14406.058951  27223.408017      0.021813                    
P 17 -17135.022766  14730.089398  14032.078166   -107.298689                    
V 17 -17365.586678   2687.548883 -24702.519764     -0.029765                    
P 18  15559.540719 -12402.723056 -16976.240726    330.260288                    
V 18  -1936.045577  22764.883184 -18250.414933      0.023864                    
P 19 -15762.823527 -10056.904445 -19185.442581   -467.024778                    
V 19  23083.432589  -6179.908541 -15407.105004     -0.020654                    
P 20 -15191.489143  -5128.002115  20995.247139    208.352580                    
V 20   4381.708460 -26871.225665  -3295.801344      0.041285                    
P 21  16825.030747  -4448.174168 -19535.218663   -371.446863                    
V 21  18770.392515  18338.446089  11174.781810     -0.021606                    
P 22  10423.038235 -23126.034637  -7369.652343    248.448777                    
V 22   1898.221186  10331.280730 -29047.720109      0.031344                    
P 23 -23654.863436  -1892.315358  12473.654294    -34.896549                    
V 23  14141.931216  -6751.515603  25612.522053     -0.030022                    
P 24  21670.860634  14719.791092   4659.709726    -31.464396                    
V 24   2593.050696   6029.758873 -30862.448920     -0.006458                    
P 25  15472.600297  -4640.877849  20977.053047     24.850895                    
V 25  -4794.120890  26380.970671   9467.012807     -0.001391                    
P 26   6699.366299  13982.544931 -22248.522868     21.362812                    
V 26 -25977.155540   5801.587357  -4024.435883     -0.124559                    
P 27  -3898.290700 -14651.855404 -21817.224034     -3.866295                    
V 27  26335.015504  -8480.472080   1052.719529      0.030157                    
P 28 -12869.000735  20409.738876 -10345.530574    368.061017                    
V 28   1882.480630 -14070.412816 -28580.544175      0.027544                    
P 29  25929.265547  -4803.250036   2986.651298    545.204195                    
V 29  -2971.959158   3418.832409  31693.609187      0.027191                    
P 30 -11930.967736   9575.772881 -21721.144190    -29.022939                    
V 30 -18888.348131 -20079.849663   1483.420566     -0.065036                    
P 31     81.801982 -18092.643867  19483.118746    333.630959                    
V 31  18495.523979  16073.822256  15263.818200     -0.001828                    
P 32  -7575.909280 -18667.864271  17624.547208   -389.890676                    
V 32   7922.490141 -20708.635120 -18042.509996      0.083798                    
EOF
